NORAD_CAT_ID,OBJECT_NAME,OBJECT_TYPE,EPOCH,MEAN_MOTION,ECCENTRICITY,INCLINATION,RA_OF_ASC_NODE,ARG_OF_PERICENTER,MEAN_ANOMALY,BSTAR,MEAN_MOTION_DOT,MEAN_MOTION_DDOT,TLE_LINE0,TLE_LINE1,TLE_LINE2,SEMIMAJOR_AXIS,PERIOD,APOGEE,PERIGEE,DECAYED
55278.0,STARLINK-5289,PAYLOAD,2023-07-21 12:26:28,14.98328976,0.0003179,70.0013,310.3636,263.7239,96.3558,0.0001236,1.382e-05,0.0,0 STARLINK-5289,1 55278U 23010K   23202.51838242  .00001382  00000-0  12360-3 0  9994,2 55278  70.0013 310.3636 0003179 263.7239  96.3558 14.98328976 28355,6950.196,96.107,574.271,569.852,0.0
55278.0,STARLINK-5289,PAYLOAD,2023-07-24 06:07:58,14.98329326,0.0003075,70.0018,303.4643,261.2077,98.8734,2.1805e-05,1.67e-06,0.0,0 STARLINK-5289,1 55278U 23010K   23205.25554045  .00000167  00000-0  21805-4 0  9999,2 55278  70.0018 303.4643 0003075 261.2077  98.8734 14.98329326 29061,6950.195,96.107,574.197,569.923,0.0
55278.0,STARLINK-5289,PAYLOAD,2023-07-25 10:58:24,14.9832662,0.0003732,70.0002,300.4337,272.0695,88.0037,-6.6492e-06,-1.72e-06,0.0,0 STARLINK-5289,1 55278U 23010K   23206.45722340 -.00000172  00000-0 -66492-5 0  9997,2 55278  70.0002 300.4337 0003732 272.0695  88.0037 14.98326620 28944,6950.203,96.107,574.662,569.475,0.0
55278.0,STARLINK-5289,PAYLOAD,2023-07-26 06:12:00,14.98329558,0.0003705,70.0004,298.4144,271.4855,88.588,-1.7467e-05,-3.02e-06,0.0,0 STARLINK-5289,1 55278U 23010K   23207.25834226 -.00000302  00000-0 -17467-4 0  9995,2 55278  70.0004 298.4144 0003705 271.4855  88.5880 14.98329558 29360,6950.194,96.107,574.634,569.484,0.0
55278.0,STARLINK-5289,PAYLOAD,2023-07-26 09:24:16,14.98331942,0.000361,70.0006,298.0779,269.4765,90.5981,8.2054e-06,5e-08,0.0,0 STARLINK-5289,1 55278U 23010K   23207.39185975  .00000005  00000-0  82054-5 0  9993,2 55278  70.0006 298.0779 0003610 269.4765  90.5981 14.98331942 29381,6950.187,96.107,574.561,569.543,0.0
55278.0,STARLINK-5289,PAYLOAD,2023-07-27 04:37:53,14.98330378,0.0003511,70.0004,296.0572,269.3278,90.7479,6.2409e-05,6.52e-06,0.0,0 STARLINK-5289,1 55278U 23010K   23208.19297720  .00000652  00000-0  62409-4 0  9993,2 55278  70.0004 296.0572 0003511 269.3278  90.7479 14.98330378 29506,6950.192,96.107,574.497,569.617,0.0
55278.0,STARLINK-5289,PAYLOAD,2023-07-27 17:26:57,14.98331228,0.000343,70.0005,294.7105,269.7223,90.3543,7.5245e-05,8.05e-06,0.0,0 STARLINK-5289,1 55278U 23010K   23208.72705587  .00000805  00000-0  75245-4 0  9999,2 55278  70.0005 294.7105 0003430 269.7223  90.3543 14.98331228 29286,6950.189,96.107,574.438,569.67,0.0
55278.0,STARLINK-5289,PAYLOAD,2023-07-28 06:16:04,14.98316168,0.0003325,69.9997,293.3628,275.0677,85.0102,-0.00024386,-3.001e-05,0.0,0 STARLINK-5289,1 55278U 23010K   23209.26115806 -.00003001  00000-0 -24386-3 0  9990,2 55278  69.9997 293.3628 0003325 275.0677  85.0102 14.98316168 29361,6950.236,96.108,574.412,569.79,0.0
55278.0,STARLINK-5289,PAYLOAD,2023-07-28 07:52:13,14.98292669,0.0003433,70.0006,293.1966,268.0665,92.0101,-0.000454,-5.501e-05,0.0,0 STARLINK-5289,1 55278U 23010K   23209.32793852 -.00005501  00000-0 -45400-3 0  9997,2 55278  70.0006 293.1966 0003433 268.0665  92.0101 14.98292669 29677,6950.308,96.109,574.559,569.787,0.0
55278.0,STARLINK-5289,PAYLOAD,2023-07-28 22:17:24,14.98320923,0.0003372,70.0011,291.6821,270.1809,89.8963,-0.00012103,-1.537e-05,0.0,0 STARLINK-5289,1 55278U 23010K   23209.92875724 -.00001537  00000-0 -12103-3 0  9991,2 55278  70.0011 291.6821 0003372 270.1809  89.8963 14.98320923 29464,6950.221,96.108,574.43,569.742,0.0
55278.0,STARLINK-5289,PAYLOAD,2023-07-29 09:30:20,14.98329329,0.0003301,69.9995,290.5032,273.1605,86.9177,-3.5732e-05,-5.19e-06,0.0,0 STARLINK-5289,1 55278U 23010K   23210.39607210 -.00000519  00000-0 -35732-4 0  9990,2 55278  69.9995 290.5032 0003301 273.1605  86.9177 14.98329329 29535,6950.195,96.107,574.354,569.766,0.0
55278.0,STARLINK-5289,PAYLOAD,2023-07-30 11:08:28,14.98320794,0.0003501,69.9998,287.8098,269.5112,90.5646,0.00047806,5.614e-05,0.0,0 STARLINK-5289,1 55278U 23010K   23211.46422348  .00005614  00000-0  47806-3 0  9999,2 55278  69.9998 287.8098 0003501 269.5112  90.5646 14.98320794 29699,6950.221,96.108,574.52,569.653,0.0
55278.0,STARLINK-5289,PAYLOAD,2023-07-30 22:21:25,14.98339302,0.0003501,69.9995,286.6307,271.012,89.0638,0.00012067,1.347e-05,0.0,0 STARLINK-5289,1 55278U 23010K   23211.93153956  .00001347  00000-0  12067-3 0  9997,2 55278  69.9995 286.6307 0003501 271.0120  89.0638 14.98339302 29760,6950.164,96.106,574.462,569.596,0.0
55278.0,STARLINK-5289,PAYLOAD,2023-07-31 14:22:45,14.98337301,0.0003301,70.0,284.9488,270.925,89.1531,1.995e-05,1.45e-06,0.0,0 STARLINK-5289,1 55278U 23010K   23212.59914059  .00000145  00000-0  19950-4 0  9993,2 55278  70.0000 284.9488 0003301 270.9250  89.1531 14.98337301 29862,6950.17,96.107,574.33,569.741,0.0
55278.0,STARLINK-5289,PAYLOAD,2023-08-01 14:24:46,14.9833669,0.0003321,70.0,282.4239,270.9501,89.1278,-0.00013471,-1.7e-05,0.0,0 STARLINK-5289,1 55278U 23010K   23213.60053995 -.00001700  00000-0 -13471-3 0  9990,2 55278  70.0000 282.4239 0003321 270.9501  89.1278 14.98336690 30017,6950.172,96.107,574.345,569.729,0.0
55278.0,STARLINK-5289,PAYLOAD,2023-08-02 14:26:47,14.98332081,0.0003299,69.9999,279.898,270.3442,89.7339,3.4005e-05,3.13e-06,0.0,0 STARLINK-5289,1 55278U 23010K   23214.60193553  .00000313  00000-0  34005-4 0  9990,2 55278  69.9999 279.8980 0003299 270.3442  89.7339 14.98332081 30166,6950.186,96.107,574.344,569.759,0.0
55278.0,STARLINK-5289,PAYLOAD,2023-08-03 14:28:47,14.9833375,0.0003338,69.9999,277.3744,268.6034,91.4742,6.4079e-05,6.72e-06,0.0,0 STARLINK-5289,1 55278U 23010K   23215.60333152  .00000672  00000-0  64079-4 0  9994,2 55278  69.9999 277.3744 0003338 268.6034  91.4742 14.98333750 30317,6950.181,96.107,574.366,569.726,0.0
55278.0,STARLINK-5289,PAYLOAD,2023-08-04 09:42:25,14.98326387,0.000323,70.0001,275.3552,267.1381,92.9408,-4.3857e-05,-6.16e-06,0.0,0 STARLINK-5289,1 55278U 23010K   23216.40445914 -.00000616  00000-0 -43857-4 0  9994,2 55278  70.0001 275.3552 0003230 267.1381  92.9408 14.98326387 30435,6950.204,96.107,574.314,569.824,0.0
55278.0,STARLINK-5289,PAYLOAD,2023-08-05 09:44:25,14.98335218,0.0003218,70.0,272.8303,263.5257,96.5536,1.5544e-05,9.2e-07,0.0,0 STARLINK-5289,1 55278U 23010K   23217.40585110  .00000092  00000-0  15544-4 0  9996,2 55278  70.0000 272.8303 0003218 263.5257  96.5536 14.98335218 30589,6950.177,96.107,574.278,569.805,0.0
55278.0,STARLINK-5289,PAYLOAD,2023-08-06 09:46:27,14.98321149,0.0003237,69.9998,270.305,267.1935,92.8854,-1.6182e-05,-2.86e-06,0.0,0 STARLINK-5289,1 55278U 23010K   23218.40726074 -.00000286  00000-0 -16182-4 0  9999,2 55278  69.9998 270.3050 0003237 267.1935  92.8854 14.98321149 30735,6950.22,96.108,574.335,569.835,0.0
55278.0,STARLINK-5289,PAYLOAD,2023-08-07 03:23:55,14.9833609,0.0003428,69.9989,268.4527,265.5262,94.5505,-0.00012735,-1.613e-05,0.0,0 STARLINK-5289,1 55278U 23010K   23219.14161714 -.00001613  00000-0 -12735-3 0  9999,2 55278  69.9989 268.4527 0003428 265.5262  94.5505 14.98336090 30844,6950.174,96.107,574.422,569.657,0.0
55278.0,STARLINK-5289,PAYLOAD,2023-08-08 09:50:28,14.98332452,0.0003668,69.9985,265.2537,268.4367,91.6371,0.00011783,1.313e-05,0.0,0 STARLINK-5289,1 55278U 23010K   23220.41005014  .00001313  00000-0  11783-3 0  9998,2 55278  69.9985 265.2537 0003668 268.4367  91.6371 14.98332452 31039,6950.185,96.107,574.6,569.501,0.0
55278.0,STARLINK-5289,PAYLOAD,2023-08-09 09:52:29,14.98326043,0.0003339,69.999,262.7294,261.9751,98.103,-6.1082e-07,-1e-06,0.0,0 STARLINK-5289,1 55278U 23010K   23221.41145723 -.00000100  00000-0 -61082-6 0  9996,2 55278  69.9990 262.7294 0003339 261.9751  98.1030 14.98326043 31186,6950.205,96.107,574.391,569.749,0.0
55278.0,STARLINK-5289,PAYLOAD,2023-08-10 09:54:30,14.98332637,0.0003525,69.9986,260.2036,266.7918,93.2837,-8.4688e-06,-1.94e-06,0.0,0 STARLINK-5289,1 55278U 23010K   23222.41285197 -.00000194  00000-0 -84688-5 0  9996,2 55278  69.9986 260.2036 0003525 266.7918  93.2837 14.98332637 31337,6950.185,96.107,574.5,569.6,0.0
55278.0,STARLINK-5289,PAYLOAD,2023-08-11 09:56:31,14.98330738,0.0003602,69.9985,257.6783,264.5243,95.5506,1.7994e-05,1.22e-06,0.0,0 STARLINK-5289,1 55278U 23010K   23223.41425094  .00000122  00000-0  17994-4 0  9993,2 55278  69.9985 257.6783 0003602 264.5243  95.5506 14.98330738 31482,6950.191,96.107,574.559,569.552,0.0
55278.0,STARLINK-5289,PAYLOAD,2023-08-12 09:58:32,14.9832644,0.0003502,69.9988,255.1535,263.0785,96.9976,-3.3724e-05,-4.95e-06,0.0,0 STARLINK-5289,1 55278U 23010K   23224.41565537 -.00000495  00000-0 -33724-4 0  9995,2 55278  69.9988 255.1535 0003502 263.0785  96.9976 14.98326440 31635,6950.204,96.107,574.503,569.635,0.0
55278.0,STARLINK-5289,PAYLOAD,2023-08-13 11:36:41,14.98331522,0.0003709,69.9982,252.46,267.062,93.0115,1.7779e-05,1.19e-06,0.0,0 STARLINK-5289,1 55278U 23010K   23225.48381032  .00000119  00000-0  17779-4 0  9992,2 55278  69.9982 252.4600 0003709 267.0620  93.0115 14.98331522 31790,6950.188,96.107,574.631,569.475,0.0
55278.0,STARLINK-5289,PAYLOAD,2023-08-15 02:03:54,14.98331112,0.0003717,69.998,248.4199,266.743,93.3304,-1.3938e-06,-1.1e-06,0.0,0 STARLINK-5289,1 55278U 23010K   23227.08604965 -.00000110  00000-0 -13938-5 0  9990,2 55278  69.9980 248.4199 0003717 266.7430  93.3304 14.98331112 32036,6950.189,96.107,574.638,569.471,0.0
55278.0,STARLINK-5289,PAYLOAD,2023-08-16 02:05:55,14.9833042,0.0003743,69.9978,245.8952,266.9149,93.1582,-1.5312e-05,-2.76e-06,0.0,0 STARLINK-5289,1 55278U 23010K   23228.08744950 -.00000276  00000-0 -15312-4 0  9990,2 55278  69.9978 245.8952 0003743 266.9149  93.1582 14.98330420 32182,6950.192,96.107,574.658,569.455,0.0
55278.0,STARLINK-5289,PAYLOAD,2023-08-17 02:07:56,14.98328524,0.0003737,69.998,243.3704,267.9046,92.1685,2.0016e-06,-6.9e-07,0.0,0 STARLINK-5289,1 55278U 23010K   23229.08884962 -.00000069  00000-0  20016-5 0  9996,2 55278  69.9980 243.3704 0003737 267.9046  92.1685 14.98328524 32335,6950.197,96.107,574.66,569.465,0.0
